CSS (TIANHE)            
1 48274U 21035A   24117.16233996  .00050859  00000+0  55240-3 0  9995
2 48274  41.4690  40.8827 0004294 269.1016  90.9332 15.62627011170953
